#aV2006  4 24  0  0   .00000000      96 DD+AD WGS84 FIT  NGA
## 1372  86400.00000000   900.00000000 53849  .0000000000000
+   29     1  2  3  4  5  6  7  8  9 10 11 13 14 15 16 17 18
+         19 20 21 22 23 24 25 26 27 28 29 30  0  0  0  0  0
+          0  0  0  0  0  0  0  0  0  0  0  0  0  0  0  0  0
+          0  0  0  0  0  0  0  0  0  0  0  0  0  0  0  0  0
+          0  0  0  0  0  0  0  0  0  0  0  0  0  0  0  0  0
++         0  0  0  0  0  0  0  0  0  0  0  0  0  0  0  0  0
++         0  0  0  0  0  0  0  0  0  0  0  0  0  0  0  0  0
++         0  0  0  0  0  0  0  0  0  0  0  0  0  0  0  0  0
++         0  0  0  0  0  0  0  0  0  0  0  0  0  0  0  0  0
++         0  0  0  0  0  0  0  0  0  0  0  0  0  0  0  0  0
%c cc cc ccc ccc cccc cccc cccc cccc ccccc ccccc ccccc ccccc
%c cc cc ccc ccc cccc cccc cccc cccc ccccc ccccc ccccc ccccc
%f  0.0000000  0.000000000  0.00000000000  0.000000000000000
%f  0.0000000  0.000000000  0.00000000000  0.000000000000000
%i    0    0    0    0      0      0      0      0         0
%i    0    0    0    0      0      0      0      0         0
/*      NGA, ST. LOUIS,MO.                                  
/*   EPHEMERIS COMPUTED FROM  3 DAYS OF DATA                
/* CCCCCCCCCCCCCCCCCCCCCCCCCCCCCCCCCCCCCCCCCCCCCCCCCCCCCCCCC
/* CCCCCCCCCCCCCCCCCCCCCCCCCCCCCCCCCCCCCCCCCCCCCCCCCCCCCCCCC
*  2006  4 24 16 30   .00000000                                                 
P  1 -14721.924437  16779.455467 -14165.351569     48.912854                    
V  1   3677.685977 -17986.345639 -24829.763341       .022676                    
P  2  21733.410334 -12375.642104   8374.289173     -7.139248                    
V  2  11502.156574    -22.815294 -29157.196606       .023630                    
P  3 -11550.017882  21111.262203  10735.970908     93.187441                    
V  3  -1357.037393 -14447.196875  26852.566703       .031825                    
P  4  26075.125103  -5833.676046  -1357.539603    213.421172                    
V  4   -887.735614   3180.143749 -31226.550665       .097912                    
P  5  -9245.064157 -20889.687120 -13882.842002   -107.453011                    
V  5  14945.158947   9074.259024 -23776.539814       .618951                    
P  6  -8669.463143 -18697.909125  16906.204341    490.456974                    
V  6   6762.857969 -20231.463359 -19203.544874       .211248                    
P  7 -16383.427328   3049.786110  21044.024601    531.410831                    
V  7   4250.890179 -25687.368576   7004.667100       .038007                    
P  8  24996.801920    634.909458   9388.458593    -63.633187                    
V  8 -11213.380813   4660.579393  28702.053948      -.012252                    
P  9   2246.048252 -16378.243534 -21275.517691     17.466258                    
V  9  24837.683507  -7164.937411   8636.906011       .016253                    
P 10   8766.362649 -12198.878547  21786.294982     82.313288                    
V 10  19796.586733  19633.336048   3318.685043       .005773                    
P 11    351.150732  17384.330282 -20099.231119    322.728731                    
V 11 -24024.826411   9243.085077   7848.876381       .025260                    
P 13   7492.410870  17633.611676  18336.107194     56.896927                    
V 13  -7298.405787  22216.618878 -18240.804894       .027813                    
P 14 -15246.854180   1654.982428 -21612.187330    -15.327459                    
V 14   6668.678519 -26718.539492  -6775.204740       .007266                    
P 15 -24975.236267  -1638.088570   9297.828346    601.945780                    
V 15  11214.426322  -4696.510864  28395.512230       .062214                    
P 16 -13858.373632   7384.070657  21521.752488     38.730489                    
V 16 -18928.423364 -19401.084713  -5454.275800       .022942                    
P 17  15546.599398    -30.505069 -21538.231361     86.067742                    
V 17  -6316.630939  26593.652124  -4690.500073       .040352                    
P 18 -19368.223096 -18255.493514  -2322.363350   -232.304421                    
V 18   -155.747439  -4024.833451  31317.898428      -.017400                    
P 19  -7200.588522  25503.045583  -1289.662049    -13.870966                    
V 19  -3324.992951    792.772201  31679.834202       .016532                    
P 20   9828.532349  21444.958251 -12334.146937    -28.039297                    
V 20 -12825.831067  -9031.271969 -26085.750861       .006966                    
P 21 -19721.124286  -7536.799912  16474.406807     23.857399                    
V 21  19666.119861  -6616.400507  20054.764363       .028385                    
P 22 -20932.185436  -7944.686042 -14141.416839     88.782382                    
V 22 -10671.635138 -14953.489979  23933.825551       .038234                    
P 23    162.023277  24836.274612   9091.406305    143.177393                    
V 23  -5291.992425  10744.698614 -29116.081079      -.009892                    
P 24  23357.829499   3445.734042 -12186.480808       .910961                    
V 24 -14866.005955   5654.062641 -26135.269842       .029500                    
P 25 -24155.076051  11047.868833   2325.395659     12.943242                    
V 25  -3340.458506  -1831.419389 -31325.084482      -.002145                    
P 26   8184.932059 -24831.488176   1738.487065    -95.769001                    
V 26   1577.682490   3260.449586  32696.259645      -.108258                    
P 27  19032.864983   6783.921794  18010.427842     45.749443                    
V 27 -19928.878197   8345.336844  18213.615741       .017045                    
P 28  21618.803053  11005.432746 -10925.265444     28.811204                    
V 28   8346.703935  11691.788304  27234.480613      -.008167                    
P 29  10179.332645 -23562.421232   6476.318042    592.168103                    
V 29    134.978392   8219.669253  31085.731365       .077329                    
P 30 -17052.367630 -19988.892093  -4579.133297    182.762250                    
V 30   6156.152643   1355.698850 -30592.910414       .427155                    
EOF
